CCSDS_OMM_VERS = 2.0
CREATION_DATE  = 
ORIGINATOR     = 

OBJECT_NAME    = ISS OBJECT YC
OBJECT_ID      = 1998-067YC
CENTER_NAME    = EARTH
REF_FRAME      = TEME
TIME_SYSTEM    = UTC
MEAN_ELEMENT_THEORY = SGP/SGP4

EPOCH          = 2026-02-26T15:25:50.050560
MEAN_MOTION    = 15.51445447
ECCENTRICITY   = .00076137
INCLINATION    = 51.6316
RA_OF_ASC_NODE = 126.6439
ARG_OF_PERICENTER = 114.2311
MEAN_ANOMALY   = 245.9475

EPHEMERIS_TYPE = 0
CLASSIFICATION_TYPE = U
NORAD_CAT_ID   = 67686
ELEMENT_SET_NO = 999
REV_AT_EPOCH   = 307
BSTAR          = .88335406E-3
MEAN_MOTION_DOT = .53017E-3
MEAN_MOTION_DDOT = 0

CCSDS_OMM_VERS = 2.0
CREATION_DATE  = 
ORIGINATOR     = 

OBJECT_NAME    = LEOPARD
OBJECT_ID      = 1998-067YD
CENTER_NAME    = EARTH
REF_FRAME      = TEME
TIME_SYSTEM    = UTC
MEAN_ELEMENT_THEORY = SGP/SGP4

EPOCH          = 2026-02-26T13:58:03.605952
MEAN_MOTION    = 15.50976867
ECCENTRICITY   = .0007694
INCLINATION    = 51.6317
RA_OF_ASC_NODE = 126.9861
ARG_OF_PERICENTER = 117.4122
MEAN_ANOMALY   = 242.7651

EPHEMERIS_TYPE = 0
CLASSIFICATION_TYPE = U
NORAD_CAT_ID   = 67687
ELEMENT_SET_NO = 999
REV_AT_EPOCH   = 298
BSTAR          = .67739E-3
MEAN_MOTION_DOT = .39802E-3
MEAN_MOTION_DDOT = 0

CCSDS_OMM_VERS = 2.0
CREATION_DATE  = 
ORIGINATOR     = 

OBJECT_NAME    = ISS OBJECT YE
OBJECT_ID      = 1998-067YE
CENTER_NAME    = EARTH
REF_FRAME      = TEME
TIME_SYSTEM    = UTC
MEAN_ELEMENT_THEORY = SGP/SGP4

EPOCH          = 2026-02-26T13:54:37.249920
MEAN_MOTION    = 15.51284687
ECCENTRICITY   = .000761
INCLINATION    = 51.6319
RA_OF_ASC_NODE = 126.9710
ARG_OF_PERICENTER = 114.9063
MEAN_ANOMALY   = 245.2718

EPHEMERIS_TYPE = 0
CLASSIFICATION_TYPE = U
NORAD_CAT_ID   = 67688
ELEMENT_SET_NO = 999
REV_AT_EPOCH   = 298
BSTAR          = .82764E-3
MEAN_MOTION_DOT = .49335E-3
MEAN_MOTION_DDOT = 0

CCSDS_OMM_VERS = 2.0
CREATION_DATE  = 
ORIGINATOR     = 

OBJECT_NAME    = PRC TEST SPACECRAFT 4
OBJECT_ID      = 2026-024A
CENTER_NAME    = EARTH
REF_FRAME      = TEME
TIME_SYSTEM    = UTC
MEAN_ELEMENT_THEORY = SGP/SGP4

EPOCH          = 2026-02-26T21:48:49.041216
MEAN_MOTION    = 14.91678624
ECCENTRICITY   = .00061535
INCLINATION    = 49.9852
RA_OF_ASC_NODE = 73.3792
ARG_OF_PERICENTER = 318.5436
MEAN_ANOMALY   = 41.5038

EPHEMERIS_TYPE = 0
CLASSIFICATION_TYPE = U
NORAD_CAT_ID   = 67689
ELEMENT_SET_NO = 999
REV_AT_EPOCH   = 297
BSTAR          = .25822487E-4
MEAN_MOTION_DOT = .18E-6
MEAN_MOTION_DDOT = 0

CCSDS_OMM_VERS = 2.0
CREATION_DATE  = 
ORIGINATOR     = 

OBJECT_NAME    = CZ-2F R/B
OBJECT_ID      = 2026-024B
CENTER_NAME    = EARTH
REF_FRAME      = TEME
TIME_SYSTEM    = UTC
MEAN_ELEMENT_THEORY = SGP/SGP4

EPOCH          = 2026-02-26T21:22:10.972128
MEAN_MOTION    = 15.33851201
ECCENTRICITY   = .01758111
INCLINATION    = 49.9878
RA_OF_ASC_NODE = 68.7435
ARG_OF_PERICENTER = 230.1507
MEAN_ANOMALY   = 128.3873

EPHEMERIS_TYPE = 0
CLASSIFICATION_TYPE = U
NORAD_CAT_ID   = 67690
ELEMENT_SET_NO = 999
REV_AT_EPOCH   = 303
BSTAR          = .37067038E-3
MEAN_MOTION_DOT = .20082E-3
MEAN_MOTION_DDOT = 0

CCSDS_OMM_VERS = 2.0
CREATION_DATE  = 
ORIGINATOR     = 

OBJECT_NAME    = CZ-2F DEB
OBJECT_ID      = 2026-024C
CENTER_NAME    = EARTH
REF_FRAME      = TEME
TIME_SYSTEM    = UTC
MEAN_ELEMENT_THEORY = SGP/SGP4

EPOCH          = 2026-02-26T21:17:18.651552
MEAN_MOTION    = 15.84360586
ECCENTRICITY   = .01919353
INCLINATION    = 49.9046
RA_OF_ASC_NODE = 63.1837
ARG_OF_PERICENTER = 242.0601
MEAN_ANOMALY   = 116.0832

EPHEMERIS_TYPE = 0
CLASSIFICATION_TYPE = U
NORAD_CAT_ID   = 67691
ELEMENT_SET_NO = 999
REV_AT_EPOCH   = 309
BSTAR          = .80689378E-3
MEAN_MOTION_DOT = .905025E-2
MEAN_MOTION_DDOT = .10630603E-4

CCSDS_OMM_VERS = 2.0
CREATION_DATE  = 
ORIGINATOR     = 

OBJECT_NAME    = CZ-2F DEB
OBJECT_ID      = 2026-024D
CENTER_NAME    = EARTH
REF_FRAME      = TEME
TIME_SYSTEM    = UTC
MEAN_ELEMENT_THEORY = SGP/SGP4

EPOCH          = 2026-02-26T20:24:22.380192
MEAN_MOTION    = 15.20641089
ECCENTRICITY   = .02474026
INCLINATION    = 50.3167
RA_OF_ASC_NODE = 71.7906
ARG_OF_PERICENTER = 237.4211
MEAN_ANOMALY   = 120.2641

EPHEMERIS_TYPE = 0
CLASSIFICATION_TYPE = U
NORAD_CAT_ID   = 67692
ELEMENT_SET_NO = 999
REV_AT_EPOCH   = 297
BSTAR          = .39562407E-2
MEAN_MOTION_DOT = .210582E-2
MEAN_MOTION_DDOT = 0

CCSDS_OMM_VERS = 2.0
CREATION_DATE  = 
ORIGINATOR     = 

OBJECT_NAME    = STARLINK-36748
OBJECT_ID      = 2026-025A
CENTER_NAME    = EARTH
REF_FRAME      = TEME
TIME_SYSTEM    = UTC
MEAN_ELEMENT_THEORY = SGP/SGP4

EPOCH          = 2026-02-26T22:00:01.999584
MEAN_MOTION    = 15.75258209
ECCENTRICITY   = .00015929
INCLINATION    = 97.2843
RA_OF_ASC_NODE = 168.9169
ARG_OF_PERICENTER = 93.2395
MEAN_ANOMALY   = 175.4949

EPHEMERIS_TYPE = 0
CLASSIFICATION_TYPE = U
NORAD_CAT_ID   = 67693
ELEMENT_SET_NO = 999
REV_AT_EPOCH   = 412
BSTAR          = -.13066734E-2
MEAN_MOTION_DOT = -.191305E-2
MEAN_MOTION_DDOT = 0

CCSDS_OMM_VERS = 2.0
CREATION_DATE  = 
ORIGINATOR     = 

OBJECT_NAME    = STARLINK-36753
OBJECT_ID      = 2026-025B
CENTER_NAME    = EARTH
REF_FRAME      = TEME
TIME_SYSTEM    = UTC
MEAN_ELEMENT_THEORY = SGP/SGP4

EPOCH          = 2026-02-26T22:00:01.999584
MEAN_MOTION    = 15.75249677
ECCENTRICITY   = .00011288
INCLINATION    = 97.2850
RA_OF_ASC_NODE = 168.9349
ARG_OF_PERICENTER = 90.4427
MEAN_ANOMALY   = 222.2891

EPHEMERIS_TYPE = 0
CLASSIFICATION_TYPE = U
NORAD_CAT_ID   = 67694
ELEMENT_SET_NO = 999
REV_AT_EPOCH   = 428
BSTAR          = -.1229013E-2
MEAN_MOTION_DOT = -.180098E-2
MEAN_MOTION_DDOT = 0

CCSDS_OMM_VERS = 2.0
CREATION_DATE  = 
ORIGINATOR     = 

OBJECT_NAME    = STARLINK-36750
OBJECT_ID      = 2026-025C
CENTER_NAME    = EARTH
REF_FRAME      = TEME
TIME_SYSTEM    = UTC
MEAN_ELEMENT_THEORY = SGP/SGP4

EPOCH          = 2026-02-26T22:02:35.106432
MEAN_MOTION    = 15.80885548
ECCENTRICITY   = .00014163
INCLINATION    = 97.2847
RA_OF_ASC_NODE = 168.9531
ARG_OF_PERICENTER = 82.7775
MEAN_ANOMALY   = 277.3654

EPHEMERIS_TYPE = 0
CLASSIFICATION_TYPE = U
NORAD_CAT_ID   = 67695
ELEMENT_SET_NO = 999
REV_AT_EPOCH   = 424
BSTAR          = .11798074E-2
MEAN_MOTION_DOT = .232717E-2
MEAN_MOTION_DDOT = 0

CCSDS_OMM_VERS = 2.0
CREATION_DATE  = 
ORIGINATOR     = 

OBJECT_NAME    = STARLINK-36401
OBJECT_ID      = 2026-025D
CENTER_NAME    = EARTH
REF_FRAME      = TEME
TIME_SYSTEM    = UTC
MEAN_ELEMENT_THEORY = SGP/SGP4

EPOCH          = 2026-02-26T22:00:20.961792
MEAN_MOTION    = 15.80888834
ECCENTRICITY   = .00013038
INCLINATION    = 97.2847
RA_OF_ASC_NODE = 168.9551
ARG_OF_PERICENTER = 94.6450
MEAN_ANOMALY   = 265.4967

EPHEMERIS_TYPE = 0
CLASSIFICATION_TYPE = U
NORAD_CAT_ID   = 67696
ELEMENT_SET_NO = 999
REV_AT_EPOCH   = 424
BSTAR          = .10819272E-2
MEAN_MOTION_DOT = .212942E-2
MEAN_MOTION_DDOT = 0

CCSDS_OMM_VERS = 2.0
CREATION_DATE  = 
ORIGINATOR     = 

OBJECT_NAME    = STARLINK-36704
OBJECT_ID      = 2026-025E
CENTER_NAME    = EARTH
REF_FRAME      = TEME
TIME_SYSTEM    = UTC
MEAN_ELEMENT_THEORY = SGP/SGP4

EPOCH          = 2026-02-26T22:00:01.999584
MEAN_MOTION    = 15.75243525
ECCENTRICITY   = .00017402
INCLINATION    = 97.2850
RA_OF_ASC_NODE = 168.9391
ARG_OF_PERICENTER = 96.6066
MEAN_ANOMALY   = 228.1253

EPHEMERIS_TYPE = 0
CLASSIFICATION_TYPE = U
NORAD_CAT_ID   = 67697
ELEMENT_SET_NO = 999
REV_AT_EPOCH   = 412
BSTAR          = -.11408003E-2
MEAN_MOTION_DOT = -.167398E-2
MEAN_MOTION_DDOT = 0

