ISS OBJECT YC           
1 67686U 98067YC  26057.64294040  .00053017  00000+0  88335-3 0  9997
2 67686  51.6316 126.6439 0007613 114.2311 245.9475 15.51445447  3074
LEOPARD                 
1 67687U 98067YD  26057.58198618  .00039802  00000+0  67739-3 0  9996
2 67687  51.6317 126.9861 0007694 117.4122 242.7651 15.50976867  2986
ISS OBJECT YE           
1 67688U 98067YE  26057.57959780  .00049335  00000+0  82764-3 0  9998
2 67688  51.6319 126.9710 0007610 114.9063 245.2718 15.51284687  2981
PRC TEST SPACECRAFT 4   
1 67689U 26024A   26057.90890094  .00000018  00000+0  25822-4 0  9990
2 67689  49.9852  73.3792 0006153 318.5436  41.5038 14.91678624  2978
CZ-2F R/B               
1 67690U 26024B   26057.89040477  .00020082  00000+0  37067-3 0  9998
2 67690  49.9878  68.7435 0175811 230.1507 128.3873 15.33851201  3036
CZ-2F DEB               
1 67691U 26024C   26057.88702143  .00905025  10631-4  80689-3 0  9996
2 67691  49.9046  63.1837 0191935 242.0601 116.0832 15.84360586  3093
CZ-2F DEB               
1 67692U 26024D   26057.85025903  .00210582  00000+0  39562-2 0  9990
2 67692  50.3167  71.7906 0247402 237.4211 120.2641 15.20641089  2973
STARLINK-36748          
1 67693U 26025A   26057.91668981 -.00191305  00000+0 -13067-2 0  9993
2 67693  97.2843 168.9169 0001592  93.2395 175.4949 15.75258209  4124
STARLINK-36753          
1 67694U 26025B   26057.91668981 -.00180098  00000+0 -12290-2 0  9998
2 67694  97.2850 168.9349 0001128  90.4427 222.2891 15.75249677  4286
STARLINK-36750          
1 67695U 26025C   26057.91846188  .00232717  00000+0  11798-2 0  9992
2 67695  97.2847 168.9531 0001416  82.7775 277.3654 15.80885548  4249
STARLINK-36401          
1 67696U 26025D   26057.91690928  .00212942  00000+0  10819-2 0  9993
2 67696  97.2847 168.9551 0001303  94.6450 265.4967 15.80888834  4245
STARLINK-36704          
1 67697U 26025E   26057.91668981 -.00167398  00000+0 -11408-2 0  9999
2 67697  97.2850 168.9391 0001740  96.6066 228.1253 15.75243525  4129
